SL-16 R/B               
1 24298U 96051B   26187.71916713  .00000141  00000+0  10272-3 0  9995
2 24298  70.7653 283.3134 0017103 309.2904  50.6699 14.12453146538459
ORBVIEW 2 (SEASTAR)     
1 24883U 97037A   26187.74478477  .00000233  00000+0  97002-4 0  9992
2 24883  98.8706 355.3074 0003291  77.4752 282.6801 14.35563933525550
SL-16 R/B               
1 25400U 98043G   26187.72773544  .00000039  00000+0  35129-4 0  9993
2 25400  98.8374 142.0560 0010477  34.8555 325.3309 14.26071772455959
SL-16 R/B               
1 25407U 98045B   26187.73045329 -.00000061  00000+0 -67491-5 0  9991
2 25407  71.0126 291.2294 0008600 217.9363 142.1156 14.16207813443959
ISS (ZARYA)             
1 25544U 98067A   26187.47606523  .00006115  00000+0  11937-3 0  9993
2 25544  51.6304 204.6205 0006688 262.9565  97.0662 15.48920216574748
CZ-4B R/B               
1 25732U 99025C   26187.68930241  .00000031  00000+0  35866-4 0  9996
2 25732  98.6474 229.0361 0037132   4.3838 105.6771 14.18286721405033
OKEAN-O                 
1 25860U 99039A   26187.67739215  .00000578  00000+0  82311-4 0  9993
2 25860  97.9305 246.2506 0001055  74.1892 285.9436 14.80490843451999
SL-16 R/B               
1 25861U 99039B   26187.74859631  .00000492  00000+0  68917-4 0  9998
2 25861  97.9826 246.5550 0013739 227.2866 132.7191 14.81865104454496
DELTA 2 R/B             
1 25876U 99041E   26187.71109190  .00001321  00000+0  25054-3 0  9998
2 25876  51.7610 185.7969 0501197 339.7080  18.4544 14.12060713379840
HELIOS 1B               
1 25977U 99064A   26187.67934590  .00001420  00000+0  16085-3 0  9994
2 25977  98.1596  93.3820 0002311  64.4660 295.6794 14.88060250702957
TERRA                   
1 25994U 99068A   26187.82074630  .00000333  00000+0  76645-4 0  9995
2 25994  97.9445 236.5875 0003007 139.5044 344.2571 14.61119025412475
SL-16 R/B               
1 26070U 00006B   26187.49410010 -.00000183  00000+0 -68452-4 0  9996
2 26070  71.0006 208.0291 0016796 352.4515   7.6352 14.15840603365376
TITAN 4B R/B            
1 26474U 00047B   26187.86240464  .00002211  00000+0  13977-3 0  9997
2 26474  67.9887  65.1878 0045998 267.0495  92.5390 15.10306197410908
ENVISAT                 
1 27386U 02009A   26187.71868567  .00000092  00000+0  43759-4 0  9991
2 27386  98.3842 138.6024 0001373  84.7677 342.6239 14.39069475276292
IDEFIX & ARIANE 42P R/B 
1 27422U 02021B   26187.84616014  .00000182  00000+0  85745-4 0  9999
2 27422  98.5942 125.1165 0011365 191.1855 168.9077 14.31091184261068
AQUA                    
1 27424U 02022A   26187.89782676  .00000695  00000+0  14791-3 0  9996
2 27424  98.4288 157.5759 0000726  96.7085 316.2270 14.62188519286157
CZ-4B R/B               
1 27432U 02024C   26187.70279337  .00000032  00000+0  39284-4 0  9992
2 27432  98.8690 240.3953 0050869  45.8661  71.3047 14.14567415246062
MIDORI II (ADEOS-II)    
1 27597U 02056A   26187.87844186  .00000215  00000+0  10210-3 0  9997
2 27597  98.7888 147.3066 0001810  51.3401 308.7942 14.29360143227323
H-2A R/B                
1 27601U 02056E   26187.49123691  .00000216  00000+0  90102-4 0  9992
2 27601  98.3322 143.4631 0070331 166.6822 304.7517 14.33830737231138
CZ-4B R/B               
1 28059U 03049C   26187.62258209  .00000248  00000+0  68528-4 0  9994
2 28059  98.6904 187.2434 0047190 227.8192 131.8992 14.55112282203899
CZ-2C R/B               
1 28222U 04012C   26187.71803847  .00106998  00000+0  48784-3 0  9991
2 28222  97.7057 265.7145 0011228 217.1216 142.9277 15.83414277222984
SL-16 R/B               
1 28353U 04021B   26187.67780766  .00000290  00000+0  17579-3 0  9991
2 28353  71.0020 342.7831 0006535 232.3328 127.7203 14.14613368139667
CZ-4B R/B               
1 28415U 04035C   26187.67800150  .00005823  00000+0  19512-3 0  9991
2 28415  97.3360 220.5341 0028845 264.5975  95.1976 15.30911361198108
CZ-2C R/B               
1 28480U 04046B   26187.68406596  .00000110  00000+0  55804-4 0  9991
2 28480  98.1928  95.2450 0139631 162.4638 198.1436 14.27031430125475
ARIANE 5 R/B            
1 28499U 04049H   26187.73182303  .00000558  00000+0  68043-4 0  9992
2 28499  98.2736   0.7415 0083076 326.0351  33.5560 14.85472409163466
CZ-2D R/B               
1 28738U 05024B   26187.58744081  .00056294  00000+0  43227-3 0  9996
2 28738  97.3474 208.0138 0000858 234.9842 125.1341 15.71902785158386
ALOS (DAICHI)           
1 28931U 06002A   26187.48900253  .00001051  00000+0  18320-3 0  9999
2 28931  98.1331 142.9973 0000811  74.2886 285.8409 14.70090261 90937
H-2A R/B                
1 28932U 06002B   26187.43190152  .00007877  00000+0  37493-3 0  9998
2 28932  98.2591 345.0074 0050209 195.8073 164.1594 15.18351891112446
RESURS-DK 1             
1 29228U 06021A   26187.66753135  .00001870  00000+0  11088-3 0  9998
2 29228  69.9331 289.1246 0006724 280.6462  79.3947 15.13298980105523
CZ-4B R/B               
1 29507U 06046C   26187.83243080  .00003125  00000+0  15548-3 0  9997
2 29507  97.5440 232.3791 0031776 211.4882 148.4451 15.17936477 78115
CZ-2C R/B               
1 31114U 07010B   26187.85592058  .00000063  00000+0  48228-4 0  9990
2 31114  98.4113 295.2464 0057977 308.4892  51.1094 14.20280429996634
