OBJECT_NAME,OBJECT_ID,EPOCH,MEAN_MOTION,ECCENTRICITY,INCLINATION,RA_OF_ASC_NODE,ARG_OF_PERICENTER,MEAN_ANOMALY,EPHEMERIS_TYPE,CLASSIFICATION_TYPE,NORAD_CAT_ID,ELEMENT_SET_NO,REV_AT_EPOCH,BSTAR,MEAN_MOTION_DOT,MEAN_MOTION_DDOT
SL-16 R/B,1996-051B,2026-07-06T17:15:36.040032,14.12453146,.0017103,70.7653,283.3134,309.2904,50.6699,0,U,24298,999,53845,.10272E-3,.141E-5,0
ORBVIEW 2 (SEASTAR),1997-037A,2026-07-06T17:52:29.404128,14.35563933,.0003291,98.8706,355.3074,77.4752,282.6801,0,U,24883,999,52555,.97002E-4,.233E-5,0
SL-16 R/B,1998-043G,2026-07-06T17:27:56.342016,14.26071772,.0010477,98.8374,142.0560,34.8555,325.3309,0,U,25400,999,45595,.35129E-4,.39E-6,0
SL-16 R/B,1998-045B,2026-07-06T17:31:51.164256,14.16207813,.00086,71.0126,291.2294,217.9363,142.1156,0,U,25407,999,44395,-.67491E-5,-.61E-6,0
ISS (ZARYA),1998-067A,2026-07-06T11:25:32.035872,15.48920216,.0006688,51.6304,204.6205,262.9565,97.0662,0,U,25544,999,57474,.11937E-3,.6115E-4,0
CZ-4B R/B,1999-025C,2026-07-06T16:32:35.728224,14.18286721,.0037132,98.6474,229.0361,4.3838,105.6771,0,U,25732,999,40503,.35866E-4,.31E-6,0
OKEAN-O,1999-039A,2026-07-06T16:15:26.681760,14.80490843,.0001055,97.9305,246.2506,74.1892,285.9436,0,U,25860,999,45199,.82311E-4,.578E-5,0
SL-16 R/B,1999-039B,2026-07-06T17:57:58.721184,14.81865104,.0013739,97.9826,246.5550,227.2866,132.7191,0,U,25861,999,45449,.68917E-4,.492E-5,0
DELTA 2 R/B,1999-041E,2026-07-06T17:03:58.340160,14.12060713,.0501197,51.7610,185.7969,339.7080,18.4544,0,U,25876,999,37984,.25054E-3,.1321E-4,0
HELIOS 1B,1999-064A,2026-07-06T16:18:15.485760,14.88060250,.0002311,98.1596,93.3820,64.4660,295.6794,0,U,25977,999,70295,.16085E-3,.142E-4,0
TERRA,1999-068A,2026-07-06T19:41:52.480320,14.61119025,.0003007,97.9445,236.5875,139.5044,344.2571,0,U,25994,999,41247,.76645E-4,.333E-5,0
SL-16 R/B,2000-006B,2026-07-06T11:51:30.248640,14.15840603,.0016796,71.0006,208.0291,352.4515,7.6352,0,U,26070,999,36537,-.68452E-4,-.183E-5,0
TITAN 4B R/B,2000-047B,2026-07-06T20:41:51.760896,15.10306197,.0045998,67.9887,65.1878,267.0495,92.5390,0,U,26474,999,41090,.13977E-3,.2211E-4,0
ENVISAT,2002-009A,2026-07-06T17:14:54.441888,14.39069475,.0001373,98.3842,138.6024,84.7677,342.6239,0,U,27386,999,27629,.43759E-4,.92E-6,0
IDEFIX & ARIANE 42P R/B,2002-021B,2026-07-06T20:18:28.236096,14.31091184,.0011365,98.5942,125.1165,191.1855,168.9077,0,U,27422,999,26106,.85745E-4,.182E-5,0
AQUA,2002-022A,2026-07-06T21:32:52.232064,14.62188519,.0000726,98.4288,157.5759,96.7085,316.2270,0,U,27424,999,28615,.14791E-3,.695E-5,0
CZ-4B R/B,2002-024C,2026-07-06T16:52:01.347168,14.14567415,.0050869,98.8690,240.3953,45.8661,71.3047,0,U,27432,999,24606,.39284E-4,.32E-6,0
MIDORI II (ADEOS-II),2002-056A,2026-07-06T21:04:57.376704,14.29360143,.000181,98.7888,147.3066,51.3401,308.7942,0,U,27597,999,22732,.1021E-3,.215E-5,0
H-2A R/B,2002-056E,2026-07-06T11:47:22.869024,14.33830737,.0070331,98.3322,143.4631,166.6822,304.7517,0,U,27601,999,23113,.90102E-4,.216E-5,0
CZ-4B R/B,2003-049C,2026-07-06T14:56:31.092576,14.55112282,.004719,98.6904,187.2434,227.8192,131.8992,0,U,28059,999,20389,.68528E-4,.248E-5,0
CZ-2C R/B,2004-012C,2026-07-06T17:13:58.523808,15.83414277,.0011228,97.7057,265.7145,217.1216,142.9277,0,U,28222,999,22298,.48784E-3,.106998E-2,0
SL-16 R/B,2004-021B,2026-07-06T16:16:02.581824,14.14613368,.0006535,71.0020,342.7831,232.3328,127.7203,0,U,28353,999,13966,.17579E-3,.29E-5,0
CZ-4B R/B,2004-035C,2026-07-06T16:16:19.329600,15.30911361,.0028845,97.3360,220.5341,264.5975,95.1976,0,U,28415,999,19810,.19512E-3,.5823E-4,0
CZ-2C R/B,2004-046B,2026-07-06T16:25:03.298944,14.27031430,.0139631,98.1928,95.2450,162.4638,198.1436,0,U,28480,999,12547,.55804E-4,.11E-5,0
ARIANE 5 R/B,2004-049H,2026-07-06T17:33:49.509792,14.85472409,.0083076,98.2736,0.7415,326.0351,33.5560,0,U,28499,999,16346,.68043E-4,.558E-5,0
CZ-2D R/B,2005-024B,2026-07-06T14:05:54.885984,15.71902785,.0000858,97.3474,208.0138,234.9842,125.1341,0,U,28738,999,15838,.43227E-3,.56294E-3,0
ALOS (DAICHI),2006-002A,2026-07-06T11:44:09.818592,14.70090261,.0000811,98.1331,142.9973,74.2886,285.8409,0,U,28931,999,9093,.1832E-3,.1051E-4,0
H-2A R/B,2006-002B,2026-07-06T10:21:56.291328,15.18351891,.00502092,98.2591,345.0074,195.8073,164.1594,0,U,28932,999,11244,.37493093E-3,.7877E-4,0
RESURS-DK 1,2006-021A,2026-07-06T16:01:14.708640,15.13298980,.0006724,69.9331,289.1246,280.6462,79.3947,0,U,29228,999,10552,.11088E-3,.187E-4,0
CZ-4B R/B,2006-046C,2026-07-06T19:58:42.021120,15.17936477,.0031776,97.5440,232.3791,211.4882,148.4451,0,U,29507,999,7811,.15548E-3,.3125E-4,0
CZ-2C R/B,2007-010B,2026-07-06T20:32:31.538112,14.20280429,.0057977,98.4113,295.2464,308.4892,51.1094,0,U,31114,999,99663,.48228E-4,.63E-6,0
